ONEWEB-0717             
1 55178U 23004AQ  25177.41918586  .00000140  00000+0  32797-3 0  9994
2 55178  87.9063  76.6696 0001760  52.8887 307.2405 13.17651292120789
ONEWEB-0719             
1 55179U 23004AR  25177.42931535  .00000040  00000+0  69476-4 0  9999
2 55179  87.9063  76.6517 0001749  82.7934 277.3396 13.17652053120731
ONEWEB-0530             
1 55796U 23029A   25177.41231220  .00000101  00000+0  21712-3 0  9992
2 55796  87.9267 345.3444 0001331  86.2643 273.8642 13.20770567114182
ONEWEB-0534             
1 55797U 23029B   25177.47544295 -.00000011  00000+0 -58419-4 0  9995
2 55797  87.9267 345.3399 0001812  97.5056 262.6283 13.20773123114198
ONEWEB-0556             
1 55798U 23029C   25177.40601364  .00000057  00000+0  10903-3 0  9993
2 55798  87.9265 345.3457 0001375 118.2706 241.8566 13.20771072114182
ONEWEB-0562             
1 55799U 23029D   25177.39336753 -.00000061  00000+0 -18225-3 0  9991
2 55799  87.9266 345.3412 0000880  95.6511 264.4722 13.20773271114185
ONEWEB-0563             
1 55800U 23029E   25177.38706448 -.00000014  00000+0 -65785-4 0  9997
2 55800  87.9264 345.3571 0001993 101.3372 258.7985 13.20772861114178
